MOLNIYA 2-9
1 07276U 74026A   22261.83396626  .00000088  00000-0  00000-0 0  9993
2 07276  64.2801 214.1742 6443802 280.1612  17.5586  2.45097657251503
MOLNIYA 2-10
1 07376U 74056A   22262.37170865 -.00000650  00000-0  00000-0 0  9998
2 07376  64.2326  85.0400 6744819 285.9749  13.6622  2.01078274352245
MOLNIYA 1-S
1 07392U 74060A   22262.50867925  .00000040  00000-0  00000-0 0  9998
2 07392   4.8848 281.5280 0011755 213.6824 107.7936  1.00205427120463
MOLNIYA 1-29
1 07780U 75036A   22261.88853324 -.00000074  00000-0 -92983-1 0  9992
2 07780  63.4155 204.8643 6870774 288.4880  12.1585  2.00621216347491
MOLNIYA 2-14
1 08195U 75081A   22261.70545841 -.00001006  00000-0  00000-0 0  9999
2 08195  63.3845 178.0052 6779422 292.6930  11.6670  2.02081754344770
MOLNIYA 1-32
1 08601U 76006A   22259.00509718 -.00001432  00000-0  14084-3 0  9995
2 08601  63.4813 285.0499 7227597 283.8775  11.1799  2.00013240 54478
MOLNIYA 1-36
1 09880U 77021A   22262.00808778 -.00000568  00000-0  00000-0 0  9994
2 09880  63.5071 256.2991 7148516 289.6591  10.2558  2.00897570231246
MOLNIYA 3-8
1 10455U 77105A   22261.23578148 -.00000916  00000-0  76605-3 0  9990
2 10455  63.4122 343.7636 7363737 282.3130  10.8791  2.00811033329000
MOLNIYA 1-40
1 10925U 78055A   22262.42893399  .00000155  00000-0  00000-0 0  9994
2 10925  63.4204  34.7662 7266503 280.6865  11.8518  2.00734358324566
MOLNIYA 3-10
1 11057U 78095A   22262.52514472 -.00000325  00000-0 -94296-3 0  9992
2 11057  63.1965   4.6188 5789044 311.0248  11.7516  4.09856115387580
MOLNIYA 3-13
1 11896U 80063A   22261.67318749  .00000153  00000-0  00000-0 0  9999
2 11896  62.7160 125.5098 7114339 276.4034  13.9951  2.00664041308960
MOLNIYA 1-49
1 12156U 81009A   22260.07497439  .00000241  00000-0  18946-2 0  9995
2 12156  61.6936 151.5531 7283496 263.6410  16.9481  2.05697216223408
MOLNIYA 1-52
1 13012U 81123A   22262.05857222  .00000204  00000-0 -83375-2 0  9992
2 13012  61.6881 265.2623 7230574 256.0626  20.6450  2.00375130298456
MOLNIYA 1-53
1 13070U 82015A   22261.78454863 -.00001251  00000-0 -25365-1 0  9998
2 13070  62.6115 202.7221 7018679 282.8922  12.7483  2.00694276297134
MOLNIYA 3-20
1 13875U 83015A   22260.33157720  .00001558  00000-0  22255-2 0  9998
2 13875  62.6913 338.2310 7400602 258.9095  17.7570  2.00565719225551
MOLNIYA 1-56
1 13890U 83019A   22261.21579325 -.00001550  00000-0  18396-3 0  9991
2 13890  62.9462   3.2066 7452396 264.8660  15.1115  1.99901907288453
MOLNIYA 1-63
1 15429U 84124A   22259.54409160  .00000574  00000-0  00000+0 0  9994
2 15429  63.7585 159.0695 6656179 259.0745 193.6753  2.00850981276635
MOLNIYA 3-24
1 15738U 85040A   22261.65603226 -.00000034  00000-0  00000-0 0  9992
2 15738  63.6567  65.3773 6828900 247.2461  30.5764  2.55627754306253
MOLNIYA 3-27
1 16393U 85117A   22262.38991262 -.00000024  00000-0  00000-0 0  9995
2 16393  64.3784  69.2319 7007563 247.8698  27.9590  2.12397382276170
MOLNIYA 1-69
1 17078U 86089A   22259.07452492  .00000195  00000-0  00000+0 0  9991
2 17078  63.9874 177.9871 6659265 257.4815  25.9242  2.00676208262660
MOLNIYA 3-31
1 17328U 87008A   22260.67413030  .00000347  00000-0  00000-0 0  9994
2 17328  63.6939 117.6990 7067721 253.6393  23.7024  2.00635808257715
MOLNIYA 1-71
1 18946U 88017A   22261.61309075 -.00000339  00000-0  00000-0 0  9992
2 18946  63.3972 111.2783 7181155 256.3674  21.0837  2.00627292252925
MOLNIYA 1-75
1 19807U 89014A   22260.34162288  .00000010  00000-0  00000-0 0  9994
2 19807  64.0356 274.5335 6836263 266.6273  19.6370  2.00582021245845
MOLNIYA 1-80
1 21118U 91012A   22261.69043568 -.00000939  00000-0  00000-0 0  9992
2 21118  65.1945 322.7950 6777799 276.4408  16.4968  2.05250113232893
MOLNIYA 3-40
1 21196U 91022A   22259.95863641  .00000566  00000-0  00000-0 0  9992
2 21196  65.1016 316.6094 6807474 273.2728  17.3574  2.02992995231545
MOLNIYA 1-81
1 21426U 91043A   22260.24781544 -.00000018  00000-0  00000-0 0  9999
2 21426  64.0870 332.4188 7092569 266.5046  17.5422  2.00636500229004
MOLNIYA 3-41
1 21706U 91065A   22261.86866039  .00000676  00000-0  00000-0 0  9995
2 21706  64.0942 155.8583 6863682 255.0327  25.1367  2.04352567228775
MOLNIYA 3-42
1 22178U 92067A   22261.34024458  .00000152  00000-0  00000-0 0  9995
2 22178  64.6733 206.1764 6423382 265.5688  23.9542  2.20435660 82109
MOLNIYA 1-86
1 22671U 93035A   22262.54034287  .00000343  00000-0  53836-3 0  9993
2 22671  63.0762 182.2238 4862548   8.5301 357.4227  5.62713158357591
MOLNIYA 1-87
1 22949U 93079A   22260.73191429  .00001143  00000-0  00000+0 0  9990
2 22949  64.0379  81.6793 6887385 283.8475  13.3617  2.02853062211152
MOLNIYA 1-88
1 23420U 94081A   22262.06787034  .00000064  00000-0  00000-0 0  9992
2 23420  64.2765 175.0770 5798559 281.3355  22.0381  3.34496551116830
MOLNIYA 3-47
1 23642U 95042A   22260.86551836 -.00001185  00000-0  00000-0 0  9997
2 23642  64.1597  63.3671 6936340 284.0892  12.9958  2.01945645198885
MOLNIYA 1-90
1 24960U 97054A   22261.91535658  .00000074  00000-0 -76699-3 0  9993
2 24960  63.6504 141.5053 6107127 298.0685  13.9422  3.18687406210982
MOLNIYA 1-91
1 25485U 98054A   22262.26185934  .00000149  00000-0  22925-2 0  9998
2 25485  63.0519 135.6241 6772356 291.8891 336.5094  2.36442350180598
MOLNIYA 3-50
1 25847U 99036A   22260.22236552  .00000127  00000-0 -81559-3 0  9994
2 25847  63.2351 320.2842 7368313 282.2132  10.8217  2.00668084169953